[{"OBJECT_NAME":"STARLINK-35208","OBJECT_ID":"2025-223A","EPOCH":"2026-01-20T18:34:29.324928","MEAN_MOTION":15.30214062,"ECCENTRICITY":0.00016481,"INCLINATION":53.1607,"RA_OF_ASC_NODE":156.4467,"ARG_OF_PERICENTER":97.9705,"MEAN_ANOMALY":262.1483,"EPHEMERIS_TYPE":0,"CLASSIFICATION_TYPE":"U","NORAD_CAT_ID":65854,"ELEMENT_SET_NO":999,"REV_AT_EPOCH":1687,"BSTAR":0.0011717422,"MEAN_MOTION_DOT":0.00034521,"MEAN_MOTION_DDOT":0},{"OBJECT_NAME":"STARLINK-35200","OBJECT_ID":"2025-223B","EPOCH":"2026-01-20T17:44:29.459040","MEAN_MOTION":15.30267884,"ECCENTRICITY":0.0001275,"INCLINATION":53.158,"RA_OF_ASC_NODE":156.9411,"ARG_OF_PERICENTER":85.2842,"MEAN_ANOMALY":274.8304,"EPHEMERIS_TYPE":0,"CLASSIFICATION_TYPE":"U","NORAD_CAT_ID":65855,"ELEMENT_SET_NO":999,"REV_AT_EPOCH":1686,"BSTAR":0.0018046237,"MEAN_MOTION_DOT":0.00053588,"MEAN_MOTION_DDOT":0},{"OBJECT_NAME":"STARLINK-35459","OBJECT_ID":"2025-223C","EPOCH":"2026-01-20T18:05:45.903264","MEAN_MOTION":15.30269341,"ECCENTRICITY":0.00011496,"INCLINATION":53.1596,"RA_OF_ASC_NODE":157.0366,"ARG_OF_PERICENTER":87.0168,"MEAN_ANOMALY":273.0965,"EPHEMERIS_TYPE":0,"CLASSIFICATION_TYPE":"U","NORAD_CAT_ID":65856,"ELEMENT_SET_NO":999,"REV_AT_EPOCH":1686,"BSTAR":0.0018465662,"MEAN_MOTION_DOT":0.00054853,"MEAN_MOTION_DDOT":0},{"OBJECT_NAME":"STARLINK-35489","OBJECT_ID":"2025-223D","EPOCH":"2026-01-20T15:17:26.303136","MEAN_MOTION":15.30222139,"ECCENTRICITY":0.00010564,"INCLINATION":53.16,"RA_OF_ASC_NODE":157.7241,"ARG_OF_PERICENTER":59.1832,"MEAN_ANOMALY":300.9272,"EPHEMERIS_TYPE":0,"CLASSIFICATION_TYPE":"U","NORAD_CAT_ID":65857,"ELEMENT_SET_NO":999,"REV_AT_EPOCH":1684,"BSTAR":0.0025978669,"MEAN_MOTION_DOT":0.0007744,"MEAN_MOTION_DDOT":0},{"OBJECT_NAME":"STARLINK-35199","OBJECT_ID":"2025-223E","EPOCH":"2026-01-20T18:57:16.637760","MEAN_MOTION":15.3024743,"ECCENTRICITY":0.00014653,"INCLINATION":53.1593,"RA_OF_ASC_NODE":156.5475,"ARG_OF_PERICENTER":81.49,"MEAN_ANOMALY":278.6267,"EPHEMERIS_TYPE":0,"CLASSIFICATION_TYPE":"U","NORAD_CAT_ID":65858,"ELEMENT_SET_NO":999,"REV_AT_EPOCH":1687,"BSTAR":0.001253695,"MEAN_MOTION_DOT":0.00037011,"MEAN_MOTION_DDOT":0},{"OBJECT_NAME":"STARLINK-35408","OBJECT_ID":"2025-223F","EPOCH":"2026-01-20T15:15:53.996832","MEAN_MOTION":15.30269352,"ECCENTRICITY":0.000113,"INCLINATION":53.161,"RA_OF_ASC_NODE":157.7219,"ARG_OF_PERICENTER":80.7496,"MEAN_ANOMALY":279.3633,"EPHEMERIS_TYPE":0,"CLASSIFICATION_TYPE":"U","NORAD_CAT_ID":65859,"ELEMENT_SET_NO":999,"REV_AT_EPOCH":1684,"BSTAR":0.0022255399,"MEAN_MOTION_DOT":0.00066287,"MEAN_MOTION_DDOT":0},{"OBJECT_NAME":"STARLINK-35303","OBJECT_ID":"2025-223G","EPOCH":"2026-01-20T17:56:38.906592","MEAN_MOTION":15.3026846,"ECCENTRICITY":0.00013031,"INCLINATION":53.1587,"RA_OF_ASC_NODE":156.9929,"ARG_OF_PERICENTER":65.6029,"MEAN_ANOMALY":294.5108,"EPHEMERIS_TYPE":0,"CLASSIFICATION_TYPE":"U","NORAD_CAT_ID":65860,"ELEMENT_SET_NO":999,"REV_AT_EPOCH":1686,"BSTAR":0.0021881443,"MEAN_MOTION_DOT":0.00065156,"MEAN_MOTION_DDOT":0},{"OBJECT_NAME":"STARLINK-35258","OBJECT_ID":"2025-223H","EPOCH":"2026-01-20T18:02:43.555200","MEAN_MOTION":15.30269514,"ECCENTRICITY":0.0001186,"INCLINATION":53.1595,"RA_OF_ASC_NODE":157.0177,"ARG_OF_PERICENTER":78.8559,"MEAN_ANOMALY":281.2575,"EPHEMERIS_TYPE":0,"CLASSIFICATION_TYPE":"U","NORAD_CAT_ID":65861,"ELEMENT_SET_NO":999,"REV_AT_EPOCH":1686,"BSTAR":0.0020881122,"MEAN_MOTION_DOT":0.00062137,"MEAN_MOTION_DDOT":0},{"OBJECT_NAME":"STARLINK-35386","OBJECT_ID":"2025-223J","EPOCH":"2026-01-20T18:22:29.705376","MEAN_MOTION":15.30215674,"ECCENTRICITY":0.00015152,"INCLINATION":53.1615,"RA_OF_ASC_NODE":157.1058,"ARG_OF_PERICENTER":78.4509,"MEAN_ANOMALY":281.6662,"EPHEMERIS_TYPE":0,"CLASSIFICATION_TYPE":"U","NORAD_CAT_ID":65862,"ELEMENT_SET_NO":999,"REV_AT_EPOCH":1686,"BSTAR":0.00017429658,"MEAN_MOTION_DOT":4.809e-5,"MEAN_MOTION_DDOT":0},{"OBJECT_NAME":"STARLINK-35469","OBJECT_ID":"2025-223K","EPOCH":"2026-01-20T18:14:52.795392","MEAN_MOTION":15.30284213,"ECCENTRICITY":0.00011552,"INCLINATION":53.1605,"RA_OF_ASC_NODE":157.0749,"ARG_OF_PERICENTER":83.4778,"MEAN_ANOMALY":276.6355,"EPHEMERIS_TYPE":0,"CLASSIFICATION_TYPE":"U","NORAD_CAT_ID":65863,"ELEMENT_SET_NO":999,"REV_AT_EPOCH":1686,"BSTAR":0.0021981842,"MEAN_MOTION_DOT":0.00065491,"MEAN_MOTION_DDOT":0},{"OBJECT_NAME":"STARLINK-35471","OBJECT_ID":"2025-223L","EPOCH":"2026-01-20T15:38:31.989696","MEAN_MOTION":15.30269072,"ECCENTRICITY":0.00011427,"INCLINATION":53.16,"RA_OF_ASC_NODE":157.1059,"ARG_OF_PERICENTER":84.4765,"MEAN_ANOMALY":275.6366,"EPHEMERIS_TYPE":0,"CLASSIFICATION_TYPE":"U","NORAD_CAT_ID":65864,"ELEMENT_SET_NO":999,"REV_AT_EPOCH":1685,"BSTAR":0.0025541757,"MEAN_MOTION_DOT":0.0007623,"MEAN_MOTION_DDOT":0},{"OBJECT_NAME":"STARLINK-35475","OBJECT_ID":"2025-223M","EPOCH":"2026-01-20T18:31:26.512032","MEAN_MOTION":15.3023626,"ECCENTRICITY":0.00015662,"INCLINATION":53.1608,"RA_OF_ASC_NODE":156.4334,"ARG_OF_PERICENTER":84.3973,"MEAN_ANOMALY":275.7206,"EPHEMERIS_TYPE":0,"CLASSIFICATION_TYPE":"U","NORAD_CAT_ID":65865,"ELEMENT_SET_NO":999,"REV_AT_EPOCH":1687,"BSTAR":0.00097239764,"MEAN_MOTION_DOT":0.00028584,"MEAN_MOTION_DDOT":0},{"OBJECT_NAME":"STARLINK-35312","OBJECT_ID":"2025-223N","EPOCH":"2026-01-20T16:37:49.753344","MEAN_MOTION":15.30191785,"ECCENTRICITY":0.00015122,"INCLINATION":53.1614,"RA_OF_ASC_NODE":157.3598,"ARG_OF_PERICENTER":70.3349,"MEAN_ANOMALY":289.7815,"EPHEMERIS_TYPE":0,"CLASSIFICATION_TYPE":"U","NORAD_CAT_ID":65866,"ELEMENT_SET_NO":999,"REV_AT_EPOCH":1685,"BSTAR":0.00083819346,"MEAN_MOTION_DOT":0.00024541,"MEAN_MOTION_DDOT":0},{"OBJECT_NAME":"STARLINK-35456","OBJECT_ID":"2025-223P","EPOCH":"2026-01-20T18:58:47.920224","MEAN_MOTION":15.30250232,"ECCENTRICITY":0.00014201,"INCLINATION":53.159,"RA_OF_ASC_NODE":156.5497,"ARG_OF_PERICENTER":79.4253,"MEAN_ANOMALY":280.6907,"EPHEMERIS_TYPE":0,"CLASSIFICATION_TYPE":"U","NORAD_CAT_ID":65867,"ELEMENT_SET_NO":999,"REV_AT_EPOCH":1687,"BSTAR":0.0016053786,"MEAN_MOTION_DOT":0.00047567,"MEAN_MOTION_DDOT":0},{"OBJECT_NAME":"STARLINK-35450","OBJECT_ID":"2025-223Q","EPOCH":"2026-01-20T18:01:12.543168","MEAN_MOTION":15.30267929,"ECCENTRICITY":0.00013412,"INCLINATION":53.1594,"RA_OF_ASC_NODE":157.0147,"ARG_OF_PERICENTER":75.1321,"MEAN_ANOMALY":284.9828,"EPHEMERIS_TYPE":0,"CLASSIFICATION_TYPE":"U","NORAD_CAT_ID":65868,"ELEMENT_SET_NO":999,"REV_AT_EPOCH":1686,"BSTAR":0.0027358965,"MEAN_MOTION_DOT":0.00081737,"MEAN_MOTION_DDOT":0},{"OBJECT_NAME":"STARLINK-35441","OBJECT_ID":"2025-223R","EPOCH":"2026-01-20T18:10:19.287552","MEAN_MOTION":15.302782,"ECCENTRICITY":0.00012813,"INCLINATION":53.1607,"RA_OF_ASC_NODE":157.0531,"ARG_OF_PERICENTER":78.3112,"MEAN_ANOMALY":281.8033,"EPHEMERIS_TYPE":0,"CLASSIFICATION_TYPE":"U","NORAD_CAT_ID":65869,"ELEMENT_SET_NO":999,"REV_AT_EPOCH":1686,"BSTAR":0.002217445,"MEAN_MOTION_DOT":0.00066061,"MEAN_MOTION_DDOT":0},{"OBJECT_NAME":"STARLINK-35433","OBJECT_ID":"2025-223S","EPOCH":"2026-01-20T18:52:43.203360","MEAN_MOTION":15.30241952,"ECCENTRICITY":0.00013504,"INCLINATION":53.1593,"RA_OF_ASC_NODE":156.526,"ARG_OF_PERICENTER":84.1734,"MEAN_ANOMALY":275.9421,"EPHEMERIS_TYPE":0,"CLASSIFICATION_TYPE":"U","NORAD_CAT_ID":65870,"ELEMENT_SET_NO":999,"REV_AT_EPOCH":1688,"BSTAR":0.0010831918,"MEAN_MOTION_DOT":0.00031901,"MEAN_MOTION_DDOT":0},{"OBJECT_NAME":"STARLINK-35465","OBJECT_ID":"2025-223T","EPOCH":"2026-01-20T19:10:57.263232","MEAN_MOTION":15.30236008,"ECCENTRICITY":0.00014135,"INCLINATION":53.1581,"RA_OF_ASC_NODE":156.604,"ARG_OF_PERICENTER":75.9554,"MEAN_ANOMALY":284.1604,"EPHEMERIS_TYPE":0,"CLASSIFICATION_TYPE":"U","NORAD_CAT_ID":65871,"ELEMENT_SET_NO":999,"REV_AT_EPOCH":1687,"BSTAR":0.0017030861,"MEAN_MOTION_DOT":0.00050481,"MEAN_MOTION_DDOT":0},{"OBJECT_NAME":"STARLINK-34108","OBJECT_ID":"2025-223U","EPOCH":"2026-01-20T15:43:05.471616","MEAN_MOTION":15.30256254,"ECCENTRICITY":9.962e-5,"INCLINATION":53.1592,"RA_OF_ASC_NODE":157.1231,"ARG_OF_PERICENTER":93.5935,"MEAN_ANOMALY":266.518,"EPHEMERIS_TYPE":0,"CLASSIFICATION_TYPE":"U","NORAD_CAT_ID":65872,"ELEMENT_SET_NO":999,"REV_AT_EPOCH":1685,"BSTAR":0.0019372862,"MEAN_MOTION_DOT":0.00057563,"MEAN_MOTION_DDOT":0},{"OBJECT_NAME":"STARLINK-35423","OBJECT_ID":"2025-223V","EPOCH":"2026-01-20T15:27:53.965440","MEAN_MOTION":15.30252038,"ECCENTRICITY":9.754e-5,"INCLINATION":53.1597,"RA_OF_ASC_NODE":157.0579,"ARG_OF_PERICENTER":82.6923,"MEAN_ANOMALY":277.4189,"EPHEMERIS_TYPE":0,"CLASSIFICATION_TYPE":"U","NORAD_CAT_ID":65873,"ELEMENT_SET_NO":999,"REV_AT_EPOCH":1685,"BSTAR":0.0019268878,"MEAN_MOTION_DOT":0.00057243,"MEAN_MOTION_DDOT":0},{"OBJECT_NAME":"STARLINK-35425","OBJECT_ID":"2025-223W","EPOCH":"2026-01-20T17:55:07.876416","MEAN_MOTION":15.30267663,"ECCENTRICITY":0.00013068,"INCLINATION":53.1592,"RA_OF_ASC_NODE":156.9858,"ARG_OF_PERICENTER":81.5783,"MEAN_ANOMALY":278.5366,"EPHEMERIS_TYPE":0,"CLASSIFICATION_TYPE":"U","NORAD_CAT_ID":65874,"ELEMENT_SET_NO":999,"REV_AT_EPOCH":1686,"BSTAR":0.0019646576,"MEAN_MOTION_DOT":0.00058409,"MEAN_MOTION_DDOT":0},{"OBJECT_NAME":"STARLINK-34688","OBJECT_ID":"2025-223X","EPOCH":"2026-01-20T18:30:05.049792","MEAN_MOTION":15.30246708,"ECCENTRICITY":0.00016177,"INCLINATION":53.1612,"RA_OF_ASC_NODE":157.1357,"ARG_OF_PERICENTER":82.1822,"MEAN_ANOMALY":277.9362,"EPHEMERIS_TYPE":0,"CLASSIFICATION_TYPE":"U","NORAD_CAT_ID":65875,"ELEMENT_SET_NO":999,"REV_AT_EPOCH":1686,"BSTAR":0.00085234577,"MEAN_MOTION_DOT":0.00025006,"MEAN_MOTION_DDOT":0},{"OBJECT_NAME":"STARLINK-34438","OBJECT_ID":"2025-223Y","EPOCH":"2026-01-20T18:07:16.968864","MEAN_MOTION":15.30274979,"ECCENTRICITY":0.00013874,"INCLINATION":53.16,"RA_OF_ASC_NODE":157.0346,"ARG_OF_PERICENTER":71.555,"MEAN_ANOMALY":288.5602,"EPHEMERIS_TYPE":0,"CLASSIFICATION_TYPE":"U","NORAD_CAT_ID":65876,"ELEMENT_SET_NO":999,"REV_AT_EPOCH":1686,"BSTAR":0.0020224331,"MEAN_MOTION_DOT":0.00060166,"MEAN_MOTION_DDOT":0}]
